[{"OBJECT_NAME":"STARLINK-5863","OBJECT_ID":"2023-037J","EPOCH":"2026-03-09T22:17:42.236448","MEAN_MOTION":14.98333801,"ECCENTRICITY":0.00023449,"INCLINATION":69.9995,"RA_OF_ASC_NODE":303.8279,"ARG_OF_PERICENTER":267.7645,"MEAN_ANOMALY":92.3246,"EPHEMERIS_TYPE":0,"CLASSIFICATION_TYPE":"U","NORAD_CAT_ID":55922,"ELEMENT_SET_NO":999,"REV_AT_EPOCH":16352,"BSTAR":-8.3205167e-5,"MEAN_MOTION_DOT":-1.086e-5,"MEAN_MOTION_DDOT":0},{"OBJECT_NAME":"ORBCOMM FM02","OBJECT_ID":"1995-017B","EPOCH":"2026-03-09T15:14:02.878656","MEAN_MOTION":14.96738099,"ECCENTRICITY":0.0008676,"INCLINATION":69.9626,"RA_OF_ASC_NODE":148.0696,"ARG_OF_PERICENTER":276.2558,"MEAN_ANOMALY":83.7611,"EPHEMERIS_TYPE":0,"CLASSIFICATION_TYPE":"U","NORAD_CAT_ID":23546,"ELEMENT_SET_NO":999,"REV_AT_EPOCH":65179,"BSTAR":0.00080978,"MEAN_MOTION_DOT":9.2e-5,"MEAN_MOTION_DDOT":0}]
